GPS BIIR-2  (PRN 13)    
1 24876C 97035A   21049.69312500 -.00000000  00000-0  00000-0 0   490
2 24876  55.4672 174.5440 0047202  57.2421 270.3625  2.00562756    18
GPS BIIR-4  (PRN 20)    
1 26360C 00025A   21049.69312500 -.00000000  00000-0  00000-0 0   493
2 26360  53.6878  98.9280 0058021 165.9618 142.9692  2.00563445    17
GPS BIIR-5  (PRN 28)    
1 26407C 00040A   21049.69312500  .00000000  00000-0  00000-0 0   491
2 26407  55.8093 292.4423 0181423 282.4599 347.3914  2.00564885    15
GPS BIIR-8  (PRN 16)    
1 27663C 03005A   21049.69312500  .00000000  00000-0  00000-0 0   490
2 27663  55.8623 292.2369 0120373  36.6249 358.7528  2.00566834    17
GPS BIIR-9  (PRN 21)    
1 27704C 03010A   21049.69312500 -.00000000  00000-0  00000-0 0   493
2 27704  54.7879  42.9520 0244485 291.6650 317.5807  2.00558688    14
GPS BIIR-10 (PRN 22)    
1 28129C 03058A   21049.69312500 -.00000000  00000-0  00000-0 0   497
2 28129  53.4983 101.5963 0071770 299.8571 248.5503  2.00571852    12
GPS BIIR-11 (PRN 19)    
1 28190C 04009A   21049.69312500  .00000000  00000-0  00000-0 0   491
2 28190  56.2240 353.0856 0088036 102.3572  87.5564  2.00570598    18
GPS BIIR-13 (PRN 02)    
1 28474C 04045A   21049.69312500 -.00000000  00000-0  00000-0 0   497
2 28474  55.1254  42.9116 0205863 271.4327 194.4597  2.00570641    17
GPS BIIRM-1 (PRN 17)    
1 28874C 05038A   21049.69312500  .00000000  00000-0  00000-0 0   493
2 28874  56.3132 350.4921 0137571 269.5576 301.4713  2.00578727    17
GPS BIIRM-2 (PRN 31)    
1 29486C 06042A   21049.69312500  .00000000  00000-0  00000-0 0   499
2 29486  54.7971 228.5405 0099237  12.9318 117.6292  2.00555831    12
GPS BIIRM-3 (PRN 12)    
1 29601C 06052A   21049.69312500  .00000000  00000-0  00000-0 0   499
2 29601  55.8554 291.1600 0081336  67.2568 106.8363  2.00578415    16
GPS BIIRM-4 (PRN 15)    
1 32260C 07047A   21049.69312500 -.00000000  00000-0  00000-0 0   490
2 32260  53.2168 160.5896 0128628  54.8859 250.0794  2.00575500    13
GPS BIIRM-5 (PRN 29)    
1 32384C 07062A   21049.69312500  .00000000  00000-0  00000-0 0   493
2 32384  56.4167 351.1947 0013261 128.3859 306.8104  2.00563281    10
GPS BIIRM-6 (PRN 07)    
1 32711C 08012A   21049.69312500  .00000000  00000-0  00000-0 0   493
2 32711  54.5481 227.5864 0146147 225.8259 143.9477  2.00571973    13
GPS BIIRM-8 (PRN 05)    
1 35752C 09043A   21049.69312500 -.00000000  00000-0  00000-0 0   497
2 35752  54.7314 105.0611 0058118  49.0515 342.3390  2.00546679    13
GPS BIIF-1  (PRN 25)    
1 36585C 10022A   21049.69312500  .00000000  00000-0  00000-0 0   490
2 36585  55.1296 287.0198 0096351  53.3293  86.3109  2.00564876    17
GPS BIIF-2  (PRN 01)    
1 37753C 11036A   21049.69312500 -.00000000  00000-0  00000-0 0   495
2 37753  56.3414  47.5975 0102438  45.9844 181.2212  2.00562620    10
GPS BIIF-3  (PRN 24)    
1 38833C 12053A   21049.69312500  .00000000  00000-0  00000-0 0   494
2 38833  53.5952 223.1952 0107727  40.9866 200.7556  2.00570228    19
GPS BIIF-4  (PRN 27)    
1 39166C 13023A   21049.69312500  .00000000  00000-0  00000-0 0   492
2 39166  55.9626 347.0496 0089658  31.8284 306.6264  2.00563850    12
GPS BIIF-5  (PRN 30)    
1 39533C 14008A   21049.69312500  .00000000  00000-0  00000-0 0   494
2 39533  53.7021 228.6545 0049413 199.4518 138.5613  2.00555176    12
GPS BIIF-6  (PRN 06)    
1 39741C 14026A   21049.69312500 -.00000000  00000-0  00000-0 0   496
2 39741  56.3121  47.1245 0025209 296.1788 201.7299  2.00560034    17
GPS BIIF-7  (PRN 09)    
1 40105C 14045A   21049.69312500 -.00000000  00000-0  00000-0 0   493
2 40105  54.6139 166.1169 0017172 106.0205 329.2579  2.00576116    18
GPS BIIF-8  (PRN 03)    
1 40294C 14068A   21049.69312500 -.00000000  00000-0  00000-0 0   497
2 40294  55.4796 107.0974 0031044  45.6303 118.0619  2.00566519    19
GPS BIIF-9  (PRN 26)    
1 40534C 15013A   21049.69312500  .00000000  00000-0  00000-0 0   494
2 40534  54.0387 284.7132 0056684  13.6554  51.4583  2.00553920    18
GPS BIIF-10 (PRN 08)    
1 40730C 15033A   21049.69312500  .00000000  00000-0  00000-0 0   494
2 40730  55.4736 346.1076 0062114 356.4169 309.4061  2.00577811    16
GPS BIIF-11 (PRN 10)    
1 41019C 15062A   21049.69312500 -.00000000  00000-0  00000-0 0   498
2 41019  55.4738 106.9298 0066050 213.2876  61.4158  2.00564109    13
GPS BIIF-12 (PRN 32)    
1 41328C 16007A   21049.69312500 -.00000000  00000-0  00000-0 0   491
2 41328  54.8438 166.6674 0047596 222.6927 345.9083  2.00567468    10
GPS BIII-1  (PRN 04)    
1 43873C 18109A   21049.69312500 -.00000000  00000-0  00000-0 0   493
2 43873  55.0251 168.9842 0011844 199.0750 266.7250  2.00573322    15
GPS BIII-2  (PRN 18)    
1 44506C 19056A   21049.69312500 -.00000000  00000-0  00000-0 0   499
2 44506  55.4061  48.3543 0011907 184.9433 176.6161  2.00562943    19
GPS BIII-3  (PRN 23)    
1 45854C 20041A   21049.69312500 -.00000000  00000-0  00000-0 0   492
2 45854  55.1852 105.6141 0009319 151.0339 151.9472  2.00567084    18
GPS BIII-4  (PRN 14)    
1 46826C 20078A   21049.69312500  .00000000  00000-0  00000-0 0   491
2 46826  54.9106 289.6932 0002331 157.4990 120.6229  2.00555898    11
